STARLINK-5540           
1 56340U 23058Z   26187.70744534 -.00000911  00000+0 -59227-4 0  9995
2 56340  97.2825 186.7816 0002297  87.2285 272.9206 15.05645465176106
STARLINK-5543           
1 56341U 23058AA  26187.71716176 -.00000487  00000+0 -29853-4 0  9998
2 56341  97.2825 185.7018 0002405  92.9756 267.1747 15.05653491176022
STARLINK-5955           
1 56342U 23058AB  26187.54959806  .00000293  00000+0  24210-4 0  9994
2 56342  97.2842 186.6902 0001818  94.5373 265.6062 15.05656282176084
STARLINK-5976           
1 56343U 23058AC  26187.51083727 -.00001568  00000+0 -10479-3 0  9991
2 56343  97.2827 186.5900 0002145  86.6974 273.4499 15.05645234176073
STARLINK-5974           
1 56344U 23058AD  26187.73790523 -.00000385  00000+0 -22797-4 0  9998
2 56344  97.2828 186.8938 0001951  92.2612 267.8839 15.05651618176118
STARLINK-5979           
1 56345U 23058AE  26187.53439669 -.00000157  00000+0 -69973-5 0  9993
2 56345  97.2834 185.4919 0001853  90.2916 269.8524 15.05653945176002
STARLINK-5837           
1 56346U 23058AF  26187.68947803  .00001376  00000+0  99217-4 0  9999
2 56346  97.2835 185.7390 0001545  95.7425 264.3978 15.05663262176032
STARLINK-5829           
1 56347U 23058AG  26187.68805469 -.00000114  00000+0 -40078-5 0  9994
2 56347  97.2840 186.8091 0001563  92.6569 267.4837 15.05656226176102
STARLINK-5888           
1 56348U 23058AH  26187.48178038  .00000189  00000+0  16984-4 0  9996
2 56348  97.2835 185.4099 0001570  94.0591 266.0816 15.05655988175991
STARLINK-5887           
1 56349U 23058AJ  26187.56211987 -.00000437  00000+0 -26390-4 0  9997
2 56349  97.2832 185.6087 0002222  81.5554 278.5925 15.05638441176011
STARLINK-5886           
1 56350U 23058AK  26187.54683110 -.00000012  00000+0  30565-5 0  9996
2 56350  97.2847 186.6951 0001737  98.9297 261.2127 15.05654695176085
STARLINK-5891           
1 56351U 23058AL  26187.57175779 -.00001021  00000+0 -66906-4 0  9996
2 56351  97.2824 186.6612 0002020  87.9905 272.1554 15.05646782176088
STARLINK-5885           
1 56352U 23058AM  26187.72823940 -.00000034  00000+0  15450-5 0  9995
2 56352  97.2824 185.6876 0002125  90.3716 269.7756 15.05656326176030
STARLINK-5874           
1 56353U 23058AN  26187.73100487 -.00000674  00000+0 -42821-4 0  9993
2 56353  97.2835 185.6865 0001539 102.6941 257.4459 15.05651507176036
STARLINK-5877           
1 56354U 23058AP  26187.72404769 -.00001098  00000+0 -72196-4 0  9992
2 56354  97.2823 186.7607 0001301  94.8921 265.2455 15.05648254176103
STARLINK-5533           
1 56355U 23058AQ  26187.83335647  .00299158  00000+0  25424-2 0  9997
2 56355  97.5233 189.7236 0001227  83.0520 147.4424 15.68697219  5927
STARLINK-5535           
1 56356U 23058AR  26187.70190448 -.00000528  00000+0 -32671-4 0  9999
2 56356  97.2824 186.7906 0001744  91.1842 268.9585 15.05649067176108
STARLINK-5538           
1 56357U 23058AS  26187.73513513 -.00000678  00000+0 -43065-4 0  9990
2 56357  97.2835 186.8996 0001890  91.5428 268.6016 15.05652318176117
STARLINK-5482           
1 56358U 23058AT  26187.55932917 -.00000481  00000+0 -29453-4 0  9991
2 56358  97.2830 185.6114 0001678  92.9483 267.1937 15.05652893176015
STARLINK-5551           
1 56359U 23058AU  26187.74487878  .00036018  00000+0  24997-2 0  9993
2 56359  97.2848 185.6682 0002884 106.4448 253.7096 15.05467524176031
STARLINK-5549           
1 56360U 23058AV  26187.55790749 -.00000274  00000+0 -15115-4 0  9999
2 56360  97.2833 186.6806 0002178  98.6325 261.5149 15.05655704176088
STARLINK-5550           
1 56361U 23058AW  26187.70331896 -.00000756  00000+0 -48474-4 0  9990
2 56361  97.2824 185.7229 0001906  88.1428 272.0018 15.05652336176039
STARLINK-5972           
1 56362U 23058AX  26187.56344214 -.00004182  00000+0 -28602-3 0  9990
2 56362  97.2832 186.6727 0001686  92.6654 267.4767 15.05663010176083
STARLINK-6156           
1 56374U 23061A   26187.22803796  .00001794  00000+0  74747-4 0  9991
2 56374  43.0047 248.8829 0002646 297.7150  62.3433 15.27565859175978
STARLINK-6158           
1 56375U 23061B   26187.18176964  .00000221  00000+0  17576-4 0  9998
2 56375  43.0018 248.5383 0001403 272.2296  87.8395 15.27562324174879
STARLINK-6188           
1 56376U 23061C   26187.23687641 -.00000908  00000+0 -23469-4 0  9996
2 56376  43.0008 248.0900 0001875 276.2209  83.8429 15.27573915174883
STARLINK-6189           
1 56377U 23061D   26187.23448442 -.00004918  00000+0 -16950-3 0  9992
2 56377  43.0001 248.9272 0001650 266.0668  93.9995 15.27539023174876
STARLINK-6191           
1 56378U 23061E   26187.24329478 -.00001127  00000+0 -31414-4 0  9993
2 56378  43.0066 248.1430 0002768 301.4262  58.6319 15.27588375174884
STARLINK-6157           
1 56379U 23061F   26187.64205891  .00007967  00000+0  29911-3 0  9994
2 56379  43.0033 245.9763 0001616 273.5735  86.4932 15.27535455176049
STARLINK-6159           
1 56381U 23061H   26187.61136259 -.00001858  00000+0 -58077-4 0  9996
2 56381  43.0019 246.5984 0000817 263.5831  96.4928 15.27557680174932
