OBJECT_NAME,OBJECT_ID,EPOCH,MEAN_MOTION,ECCENTRICITY,INCLINATION,RA_OF_ASC_NODE,ARG_OF_PERICENTER,MEAN_ANOMALY,EPHEMERIS_TYPE,CLASSIFICATION_TYPE,NORAD_CAT_ID,ELEMENT_SET_NO,REV_AT_EPOCH,BSTAR,MEAN_MOTION_DOT,MEAN_MOTION_DDOT
STARLINK-5540,2023-058Z,2026-07-06T16:58:43.277376,15.05645465,.0002297,97.2825,186.7816,87.2285,272.9206,0,U,56340,999,17610,-.59227E-4,-.911E-5,0
STARLINK-5543,2023-058AA,2026-07-06T17:12:42.776064,15.05653491,.0002405,97.2825,185.7018,92.9756,267.1747,0,U,56341,999,17602,-.29853E-4,-.487E-5,0
STARLINK-5955,2023-058AB,2026-07-06T13:11:25.272384,15.05656282,.0001818,97.2842,186.6902,94.5373,265.6062,0,U,56342,999,17608,.2421E-4,.293E-5,0
STARLINK-5976,2023-058AC,2026-07-06T12:15:36.340128,15.05645234,.0002145,97.2827,186.5900,86.6974,273.4499,0,U,56343,999,17607,-.10479E-3,-.1568E-4,0
STARLINK-5974,2023-058AD,2026-07-06T17:42:35.011872,15.05651618,.0001951,97.2828,186.8938,92.2612,267.8839,0,U,56344,999,17611,-.22797E-4,-.385E-5,0
STARLINK-5979,2023-058AE,2026-07-06T12:49:31.874016,15.05653945,.0001853,97.2834,185.4919,90.2916,269.8524,0,U,56345,999,17600,-.69973E-5,-.157E-5,0
STARLINK-5837,2023-058AF,2026-07-06T16:32:50.901792,15.05663262,.0001545,97.2835,185.7390,95.7425,264.3978,0,U,56346,999,17603,.99217E-4,.1376E-4,0
STARLINK-5829,2023-058AG,2026-07-06T16:30:47.925216,15.05656226,.0001563,97.2840,186.8091,92.6569,267.4837,0,U,56347,999,17610,-.40078E-5,-.114E-5,0
STARLINK-5888,2023-058AH,2026-07-06T11:33:45.824832,15.05655988,.000157,97.2835,185.4099,94.0591,266.0816,0,U,56348,999,17599,.16984E-4,.189E-5,0
STARLINK-5887,2023-058AJ,2026-07-06T13:29:27.156768,15.05638441,.0002222,97.2832,185.6087,81.5554,278.5925,0,U,56349,999,17601,-.2639E-4,-.437E-5,0
STARLINK-5886,2023-058AK,2026-07-06T13:07:26.207040,15.05654695,.0001737,97.2847,186.6951,98.9297,261.2127,0,U,56350,999,17608,.30565E-5,-.12E-6,0
STARLINK-5891,2023-058AL,2026-07-06T13:43:19.873056,15.05646782,.000202,97.2824,186.6612,87.9905,272.1554,0,U,56351,999,17608,-.66906E-4,-.1021E-4,0
STARLINK-5885,2023-058AM,2026-07-06T17:28:39.884160,15.05656326,.0002125,97.2824,185.6876,90.3716,269.7756,0,U,56352,999,17603,.1545E-5,-.34E-6,0
STARLINK-5874,2023-058AN,2026-07-06T17:32:38.820768,15.05651507,.0001539,97.2835,185.6865,102.6941,257.4459,0,U,56353,999,17603,-.42821E-4,-.674E-5,0
STARLINK-5877,2023-058AP,2026-07-06T17:22:37.720416,15.05648254,.0001301,97.2823,186.7607,94.8921,265.2455,0,U,56354,999,17610,-.72196E-4,-.1098E-4,0
STARLINK-5533,2023-058AQ,2026-07-06T20:00:01.999008,15.68697219,.0001227,97.5233,189.7236,83.0520,147.4424,0,U,56355,999,592,.25424E-2,.299158E-2,0
STARLINK-5535,2023-058AR,2026-07-06T16:50:44.547072,15.05649067,.0001744,97.2824,186.7906,91.1842,268.9585,0,U,56356,999,17610,-.32671E-4,-.528E-5,0
STARLINK-5538,2023-058AS,2026-07-06T17:38:35.675232,15.05652318,.000189,97.2835,186.8996,91.5428,268.6016,0,U,56357,999,17611,-.43065E-4,-.678E-5,0
STARLINK-5482,2023-058AT,2026-07-06T13:25:26.040288,15.05652893,.0001678,97.2830,185.6114,92.9483,267.1937,0,U,56358,999,17601,-.29453E-4,-.481E-5,0
STARLINK-5551,2023-058AU,2026-07-06T17:52:37.526592,15.05467524,.0002884,97.2848,185.6682,106.4448,253.7096,0,U,56359,999,17603,.24997E-2,.36018E-3,0
STARLINK-5549,2023-058AV,2026-07-06T13:23:23.207136,15.05655704,.0002178,97.2833,186.6806,98.6325,261.5149,0,U,56360,999,17608,-.15115E-4,-.274E-5,0
STARLINK-5550,2023-058AW,2026-07-06T16:52:46.758144,15.05652336,.0001906,97.2824,185.7229,88.1428,272.0018,0,U,56361,999,17603,-.48474E-4,-.756E-5,0
STARLINK-5972,2023-058AX,2026-07-06T13:31:21.400896,15.05663010,.0001686,97.2832,186.6727,92.6654,267.4767,0,U,56362,999,17608,-.28602E-3,-.4182E-4,0
STARLINK-6156,2023-061A,2026-07-06T05:28:22.479744,15.27565859,.00026461,43.0047,248.8829,297.7150,62.3433,0,U,56374,999,17597,.74747008E-4,.1794E-4,0
STARLINK-6158,2023-061B,2026-07-06T04:21:44.896896,15.27562324,.00014032,43.0018,248.5383,272.2296,87.8395,0,U,56375,999,17487,.17576496E-4,.221E-5,0
STARLINK-6188,2023-061C,2026-07-06T05:41:06.121824,15.27573915,.00018759,43.0008,248.0900,276.2209,83.8429,0,U,56376,999,17488,-.23468743E-4,-.908E-5,0
STARLINK-6189,2023-061D,2026-07-06T05:37:39.453888,15.27539023,.00016508,43.0001,248.9272,266.0668,93.9995,0,U,56377,999,17487,-.16950006E-3,-.4918E-4,0
STARLINK-6191,2023-061E,2026-07-06T05:50:20.668992,15.27588375,.00027689,43.0066,248.1430,301.4262,58.6319,0,U,56378,999,17488,-.3141356E-4,-.1127E-4,0
STARLINK-6157,2023-061F,2026-07-06T15:24:33.889824,15.27535455,.0001616,43.0033,245.9763,273.5735,86.4932,0,U,56379,999,17604,.29911E-3,.7967E-4,0
STARLINK-6159,2023-061H,2026-07-06T14:40:21.727776,15.27557680,.0000817,43.0019,246.5984,263.5831,96.4928,0,U,56381,999,17493,-.58077E-4,-.1858E-4,0
